IRIDIUM 159             
1 43578U 18061K   26011.57590788 -.00000032  00000+0 -18608-4 0  9995
2 43578  86.3989 122.2050 0001825  99.4383 260.7020 14.34217497390939
IRIDIUM 180             
1 43922U 19002A   26011.64517328  .00000067  00000+0  16957-4 0  9992
2 43922  86.3941  59.0344 0002129  96.8938 263.2500 14.34217610366557
IRIDIUM 176             
1 43923U 19002B   26011.62936968  .00000912  00000+0  14081-3 0  9990
2 43923  86.6069  59.0062 0002192  95.2381 264.9086 14.72243651376211
IRIDIUM 168             
1 43924U 19002C   26011.63882541  .00000084  00000+0  22982-4 0  9999
2 43924  86.3937  59.1099 0002226  94.8326 265.3124 14.34216352366534
IRIDIUM 173             
1 43925U 19002D   26011.55636832  .00000233  00000+0  75969-4 0  9990
2 43925  86.3938  59.0397 0002369  97.1671 262.9794 14.34221157366505
IRIDIUM 169             
1 43926U 19002E   26011.47354180 -.00000430  00000+0 -14732-3 0  9996
2 43926  86.4211  90.7331 0002962 100.3730 259.7803 14.38606055367697
IRIDIUM 172             
1 43927U 19002F   26011.55003209  .00000147  00000+0  45268-4 0  9991
2 43927  86.3939  59.0498 0002045  97.5524 262.5905 14.34218915366511
IRIDIUM 175             
1 43928U 19002G   26011.48877862  .00001105  00000+0  17127-3 0  9995
2 43928  86.1508 359.7918 0002654  63.7881 296.3609 14.72246725376188
